<script>
  import { loadModules } from "esri-loader";
  import { Collection } from "sveltefire";
  import { onMount } from "svelte";

  let location;
  let messages;
  let messagesRef;
  let message_to_send;
  let editing_message;
  let view;
  let areaTitle;

  let openedWebpageTime;

  onMount(() => {
    openedWebpageTime = new Date();
  });

  if (navigator.geolocation) {
    navigator.geolocation.getCurrentPosition((position) => {
      location = position;
    });
  }
  // Function that gets called when the element is created.
  // https://svelte.dev/tutorial/actions
  // https://svelte.school/tutorials/introduction-to-actions
  const createMap = async (domNode) => {
    // Use esri-loader to load the EsriMap and MapView modules
    // // https://github.com/Esri/esri-loader#usage
    const esriLoaderOptions = { css: true };
    const [
      EsriMap,
      SceneView,
      GraphicsLayer,
      Graphic,
      esriConfig,
      Locator,
      BaseElevationLayer,
      FeatureLayer,
      WebTileLayer,
      Polyline,
      geodesicUtils,
      Point,
      PointSymbol3D,
      ObjectSymbol3DLayer,
      LayerList,
      watchUtils,
    ] = await loadModules(
      [
        "esri/Map",
        "esri/views/SceneView",
        "esri/layers/GraphicsLayer",
        "esri/Graphic",
        "esri/config",
        "esri/tasks/Locator",
        "esri/layers/BaseElevationLayer",
        "esri/layers/FeatureLayer",
        "esri/layers/WebTileLayer",
        "esri/geometry/Polyline",
        "esri/geometry/support/geodesicUtils",
        "esri/geometry/Point",
        "esri/symbols/PointSymbol3D",
        "esri/symbols/ObjectSymbol3DLayer",
        "esri/widgets/LayerList",
        "esri/core/watchUtils",
      ],
      esriLoaderOptions
    );

    esriConfig.apiKey =
      "AAPKfc01264404d3407ea6bf00c408424a9cq5qGex-2YuTlLmULZ02c4BQB8aJjDvlI9e3_ju3wBf-KlbXW99JOpu4dahxsS9Ge";

    let data = `ATLAS CENTAUR 2 R/B
1   694U 63047A   15309.93805426 +.00000879 +00000-0 +10245-3 0  9993
2   694 030.3578 165.2350 0591191 321.6694 034.3267 14.01313741600350
THOR AGENA D R/B
1 00733U 64002A   15309.88761686  .00000140  00000-0  69523-4 0  9997
2 00733  99.0717  95.2313 0034952  90.6226 269.8961 14.32154066697958
SL-3 R/B
1   877U 64053B   15309.93366170 +.00000101 +00000-0 +45662-4 0  9992
2   877 065.0783 213.9795 0073716 329.4390 030.2423 14.59175529715547
SL-8 R/B
1 02802U 67045B   15310.09894311  .00000172  00000-0  57532-4 0  9995
2 02802  74.0119 183.2145 0066350  18.3090 342.0432 14.43511400543970
SL-8 R/B
1 03230U 68040B   15309.62232468  .00000986  00000-0  10672-3 0  9999
2 03230  74.0364 342.6472 0029355  90.9749 269.4796 14.89493552547711
OAO 2
1 03597U 68110A   15309.78619215  .00000141  00000-0  44618-4 0  9990
2 03597  34.9940  71.4044 0005945 212.7270 147.3052 14.45682330472561
ISIS 1
1 03669U 69009A   15310.17516513  .00000076  00000-0  39697-4 0  9998
2 03669  88.4422 212.9770 1713160 143.4525 229.6738 11.29373758922472
SERT 2
1 04327U 70009A   15310.34658341  .00000002  00000-0  59765-4 0  9994
2 04327  99.2896  63.8594 0005727 104.0237 320.8080 13.58395607267546
SL-3 R/B
1 04814U 70113B   15310.51860169  .00004724  00000-0  16180-3 0  9991
2 04814  81.1470  13.0801 0027661 293.3577  66.4750 15.29624404444390
SL-3 R/B
1 05118U 71028B   15310.54485874  .00002086  00000-0  11592-3 0  9995
2 05118  81.2530 108.6824 0051051  73.5200 287.1627 15.12096859415205
ASTEX 1
1  5560U 71089A   15309.75105353 +.00000240 +00000-0 +65336-4 0  9991
2  5560 092.7197 013.8430 0015578 192.1897 167.8933 14.47710870315606
SL-8 R/B
1 05730U 71119B   15309.84003447  .00004503  00000-0  29994-3 0  9990
2 05730  73.8943  96.9825 0713866  93.6282 274.6707 13.98148811123206
COSMOS 482 DESCENT CRAFT
1 06073U 72023E   15310.52625717  .00031439  53641-5  16741-3 0  9991
2 06073  52.0616 139.6817 1681273  46.7232 326.2151 12.33405471287451
OAO 3 (COPERNICUS)
1 06153U 72065A   15310.55505875  .00000179  00000-0  43108-4 0  9992
2 06153  35.0057 152.3927 0007473 306.5552  77.9951 14.57707909294948
ATLAS CENTAUR R/B
1  6155U 72065B   15309.93068257 +.00000512 +00000-0 +84877-4 0  9991
2  6155 035.0046 300.9062 0038073 159.9455 200.2748 14.70999861284221
SL-8 R/B
1  7004U 73107B   15309.93528771 +.00016074 +00000-0 +32093-3 0  9997
2  7004 073.9414 249.2287 0234312 268.3663 089.0686 15.22344155147016
DELTA 1 R/B
1  8063U 75072B   15309.91312171 +.00084542 +56237-6 +90271-3 0  9995
2  8063 089.1181 109.3556 0378871 197.5374 161.2490 15.08447569784300
SL-8 R/B
1  8459U 75112B   15309.88799669 +.00000233 +00000-0 +88028-4 0  9990
2  8459 074.0600 113.3485 0015131 069.7231 290.5547 14.36662036089342
SL-3 R/B
1 10114U 77057B   15310.51089639  .00001630  00000-0  88716-4 0  9998
2 10114  97.2143 151.4933 0013403 210.3286 149.7174 15.15697888 94345
SEASAT 1
1 10967U 78064A   15310.52118983  .00000109  00000-0  72683-4 0  9995
2 10967 107.9992 149.8241 0002104 247.1129 112.9793 14.43460049961658
SL-14 R/B
1 11267U 79011B   15310.39836812  .00000349  00000-0  34685-4 0  9991
2 11267  82.5263  65.2846 0017744  32.2039 328.0259 14.88656698987866
SL-8 R/B
1 11574U 79089B   15309.89606839 +.00000113 +00000-0 +43827-4 0  9991
2 11574 074.0704 226.6894 0017141 280.6674 079.2551 14.40513297892099
SL-14 R/B
1 11672U 80005B   15309.95884395 +.00000362 +00000-0 +36876-4 0  9994
2 11672 082.5143 275.4443 0018353 110.9877 249.3306 14.87682280914663
SL-3 R/B
1 11849U 80051B   15310.21738264  .00045848  00000-0  36639-3 0  9999
2 11849  97.6834 238.1789 0002929 160.3653 199.7722 15.70986527945955
SL-3 R/B
1 11933U 80069B   14142.00220786  .13526183 -93797-6  14751-3 0  9999
2 11933 081.1638 015.6664 0010317 233.6206 126.8454 16.50143735859229
COSMOS 1220
1 12054U 80089A   14046.92356602  .10642788  78504-5  35630-3 0  9990
2 12054 064.9024 045.5536 0015341 327.6303 033.4497 16.43050581730424
SL-8 R/B
1 12139U 81003B   15310.48321054  .00004348  00000-0  22109-3 0  9991
2 12139  82.9476 307.6914 0490840 213.9862 142.8991 14.49698703761537
SL-8 R/B
1 12389U 81033B   15192.92184244  .24045308 -12285-5  13476-3 0  9994
2 12389 082.8246 077.2321 0005162 254.4661 106.7109 16.55182833770380
SL-3 R/B
1 12465U 81046B   15309.66625093  .00001214  00000-0  66866-4 0  9996
2 12465  81.2427 341.1298 0036806 128.0491 232.4067 15.12659092878298
METEOR PRIRODA
1 12585U 81065A   15310.49928025  .00002878  00000-0  14289-3 0  9992
2 12585  97.3646 290.5936 0013926 302.0976 172.0508 15.18405403872876
SL-3 R/B
1 12904U 81103B   15309.91346902 +.00001533 +00000-0 +10700-3 0  9994
2 12904 081.1787 228.2385 0028053 201.0673 158.9396 15.04510182403978
SL-3 R/B
1 13068U 82013B   15310.21222604  .00000704  00000-0  46177-4 0  9991
2 13068  81.2034 174.5343 0023648  99.7086 260.6810 15.06163942834811
SL-3 R/B
1 13154U 82039B   15310.11278241  .00001036  00000-0  85015-4 0  9995
2 13154  81.1842 175.2682 0041762  49.5521 310.9327 14.97695741815548
COSMOS 1400
1 13402U 82079A   14256.66778491  .27275328 -94809-6  79222-3 0  9990
2 13402 081.0858 318.9218 0010816 262.6711 226.2494 16.44432491764223
SL-3 R/B
1 13403U 82079B   15310.48846905  .00001355  00000-0  90770-4 0  9992
2 13403  81.1708 223.2720 0036136  58.3433 302.1306 15.05705355808109
SL-3 R/B
1 13819U 83010B   15310.04251196  .00003017  00000-0  16384-3 0  9998
2 13819  81.1142 126.8101 0034510 139.5943 220.7857 15.13701425784556
SL-3 R/B
1 14208U 83075B   15309.65757173  .00001584  00000-0  10128-3 0  9990
2 14208  97.3734 332.8422 0040580   5.9255 354.2446 15.09369853758543
COSMOS 1500
1 14372U 83099A   15310.47218744  .00003695  00000-0  19250-3 0  9996
2 14372  82.5180 204.6809 0015694 337.0082 109.8353 15.15603890748567
SL-8 R/B
1 14484U 83111B   15205.93052686  .08845674 -13632-5  17840-3 0  9993
2 14484 082.7984 284.0558 0021915 241.5243 119.6463 16.44974174635216
COSMOS 1536
1 14699U 84013A   15309.69049026  .00000921  00000-0  64119-4 0  9996
2 14699  82.5267 179.9834 0011339 265.3171  94.6761 15.04262267724443
COSMOS 1544
1 14819U 84027A   15310.13298913  .00005716  00000-0  24155-3 0  9999
2 14819  82.4855 258.6983 0013884 315.9103  44.1025 15.22947763726056
SL-14 R/B
1 14820U 84027B   15310.15730496  .00000245  00000-0  26912-4 0  9996
2 14820  82.5433 175.4737 0018252 199.8202 160.2306 14.83409055708636
ERBS
1 15354U 84108B   15309.88514202 +.00007689 +00000-0 +21297-3 0  9991
2 15354 057.0093 146.3810 0018210 075.5025 284.8046 15.37843337707070
SL-8 R/B
1 15483U 85006B   15310.57335019  .00000088  00000-0  39021-4 0  9998
2 15483  74.0467 355.4224 0017673 123.5107  37.9927 14.36068435612050
SL-12 R/B(2)
1 15772U 85042D   15309.95002038 +.00000104 +00000-0 +69164-4 0  9991
2 15772 071.1060 138.9531 0037471 240.9403 269.3256 14.21143164577732
SL-14 R/B
1 15945U 85069B   15309.58581972  .00000281  00000-0  30913-4 0  9996
2 15945  82.5262 325.1345 0021309  69.6566 290.6936 14.83771467633596
SL-3 R/B
1 16111U 85090B   15310.47482509  .00009393  00000-0  20516-3 0  9992
2 16111  97.3613  39.8644 0020057  10.1357 350.0292 15.44200177653169
SL-16 R/B
1 16182U 85097B   15309.91132044 -.00000228 +00000-0 -90856-4 0  9995
2 16182 071.0019 167.8433 0009949 256.0475 194.0771 14.16181756552517
SL-14 R/B
1 16496U 86006B   15310.42941950  .00000255  00000-0  27827-4 0  9992
2 16496  82.5274 200.9499 0018455 208.9101 273.6167 14.83883007610037
SL-14 R/B
1 16792U 86046B   15309.78988661  .00000265  00000-0  29449-4 0  9995
2 16792  82.4856  36.9416 0025785  74.7674  44.5990 14.82988197587526
SL-14 R/B
1 16882U 86055B   15309.90377387 +.00000327 +00000-0 +37285-4 0  9992
2 16882 082.5225 065.1423 0019830 184.3547 315.4293 14.82966575559453
EGS (AJISAI)
1 16908U 86061A   15310.23010644 -.00000097  00000-0  20332-5 0  9997
2 16908  50.0076 185.4943 0011571  35.7894  79.9367 12.44482189998100
COSMOS 1812
1 17295U 87003A   15310.47430266  .00002183  00000-0  12250-3 0  9991
2 17295  82.5175   3.6047 0003827  26.9141 333.2288 15.12869454569898
